STARLINK-32098          
1 59704U 24086Y   26067.99576349 -.00000531  00000+0 -97656-5 0  9996
2 59704  43.0009  64.0121 0001402 255.1283 104.9413 15.27571772104001
TEVEL2-3                
1 63218U 25052J   26068.64540225  .00020365  00000+0  69446-3 0  9991
2 63218  97.3994 324.7775 0004761 105.7353 254.4413 15.30377031 54855
